[{"CCSDS_OMM_VERS":"2.0","COMMENT":"GENERATED VIA SPACE-TRACK.ORG API","CREATION_DATE":"2004-08-15T23:35:47","ORIGINATOR":"18 SPCS","OBJECT_NAME":"ATLAS D DEB","OBJECT_ID":"1966-046AQ","CENTER_NAME":"EARTH","REF_FRAME":"TEME","TIME_SYSTEM":"UTC","MEAN_ELEMENT_THEORY":"SGP4","EPOCH":"1966-06-20T05:15:48.478175","MEAN_MOTION":"15.81278252","ECCENTRICITY":"0.01092170","INCLINATION":"28.7185","RA_OF_ASC_NODE":"176.8027","ARG_OF_PERICENTER":"49.1216","MEAN_ANOMALY":"311.8423","EPHEMERIS_TYPE":"0","CLASSIFICATION_TYPE":"U","NORAD_CAT_ID":"2273","ELEMENT_SET_NO":"999","REV_AT_EPOCH":"294","BSTAR":"0.00000000000000","MEAN_MOTION_DOT":"0.00225604","MEAN_MOTION_DDOT":"0.0000966420000","SEMIMAJOR_AXIS":"6704.966","PERIOD":"91.065","APOAPSIS":"400.060","PERIAPSIS":"253.601","OBJECT_TYPE":"DEBRIS","RCS_SIZE":null,"COUNTRY_CODE":null,"LAUNCH_DATE":null,"SITE":null,"DECAY_DATE":"1966-07-04","FILE":"33914","GP_ID":"8720232","TLE_LINE0":"0 ATLAS D DEB","TLE_LINE1":"1 02273U 66046 AQ 66171.21931109  .00225604 +96642-4 +00000-0 0  9993","TLE_LINE2":"2 02273 028.7185 176.8027 0109217 049.1216 311.8423 15.81278252002949"},{"CCSDS_OMM_VERS":"2.0","COMMENT":"GENERATED VIA SPACE-TRACK.ORG API","CREATION_DATE":"2004-08-15T23:35:47","ORIGINATOR":"18 SPCS","OBJECT_NAME":"ATLAS D DEB","OBJECT_ID":"1966-046AM","CENTER_NAME":"EARTH","REF_FRAME":"TEME","TIME_SYSTEM":"UTC","MEAN_ELEMENT_THEORY":"SGP4","EPOCH":"1966-06-20T20:35:32.026848","MEAN_MOTION":"16.09943019","ECCENTRICITY":"0.01144400","INCLINATION":"28.3392","RA_OF_ASC_NODE":"171.8476","ARG_OF_PERICENTER":"359.8653","MEAN_ANOMALY":"0.0000","EPHEMERIS_TYPE":"0","CLASSIFICATION_TYPE":"U","NORAD_CAT_ID":"2270","ELEMENT_SET_NO":"999","REV_AT_EPOCH":"12","BSTAR":"0.00000000000000","MEAN_MOTION_DOT":"-0.00031273","MEAN_MOTION_DDOT":"0.0000026229000","SEMIMAJOR_AXIS":"6625.140","PERIOD":"89.444","APOAPSIS":"322.823","PERIAPSIS":"171.187","OBJECT_TYPE":"DEBRIS","RCS_SIZE":null,"COUNTRY_CODE":null,"LAUNCH_DATE":null,"SITE":null,"DECAY_DATE":"1966-07-04","FILE":"33914","GP_ID":"8720229","TLE_LINE0":"0 ATLAS D DEB","TLE_LINE1":"1 02270U 66046 AM 66171.85800957 -.00031273 +26229-5 +00000-0 0  9999","TLE_LINE2":"2 02270 028.3392 171.8476 0114440 359.8653 000.0000 16.09943019000122"},{"CCSDS_OMM_VERS":"2.0","COMMENT":"GENERATED VIA SPACE-TRACK.ORG API","CREATION_DATE":"2004-08-15T23:35:47","ORIGINATOR":"18 SPCS","OBJECT_NAME":"ATLAS D DEB","OBJECT_ID":"1966-046BE","CENTER_NAME":"EARTH","REF_FRAME":"TEME","TIME_SYSTEM":"UTC","MEAN_ELEMENT_THEORY":"SGP4","EPOCH":"1966-06-20T21:00:33.676127","MEAN_MOTION":"15.99951877","ECCENTRICITY":"0.00484030","INCLINATION":"28.6232","RA_OF_ASC_NODE":"171.5818","ARG_OF_PERICENTER":"42.3296","MEAN_ANOMALY":"318.0712","EPHEMERIS_TYPE":"0","CLASSIFICATION_TYPE":"U","NORAD_CAT_ID":"2287","ELEMENT_SET_NO":"999","REV_AT_EPOCH":"308","BSTAR":"0.00000000000000","MEAN_MOTION_DOT":"0.00196032","MEAN_MOTION_DDOT":"0.0000896110000","SEMIMAJOR_AXIS":"6652.693","PERIOD":"90.002","APOAPSIS":"306.759","PERIAPSIS":"242.357","OBJECT_TYPE":"DEBRIS","RCS_SIZE":null,"COUNTRY_CODE":null,"LAUNCH_DATE":null,"SITE":null,"DECAY_DATE":"1966-07-04","FILE":"33914","GP_ID":"8720246","TLE_LINE0":"0 ATLAS D DEB","TLE_LINE1":"1 02287U 66046 BE 66171.87538977  .00196032 +89611-4 +00000-0 0  9996","TLE_LINE2":"2 02287 028.6232 171.5818 0048403 042.3296 318.0712 15.99951877003084"},{"CCSDS_OMM_VERS":"2.0","COMMENT":"GENERATED VIA SPACE-TRACK.ORG API","CREATION_DATE":"2004-08-15T23:35:47","ORIGINATOR":"18 SPCS","OBJECT_NAME":"ATLAS D DEB","OBJECT_ID":"1966-046AB","CENTER_NAME":"EARTH","REF_FRAME":"TEME","TIME_SYSTEM":"UTC","MEAN_ELEMENT_THEORY":"SGP4","EPOCH":"1966-06-20T21:09:54.504576","MEAN_MOTION":"15.94628110","ECCENTRICITY":"0.00760840","INCLINATION":"28.4054","RA_OF_ASC_NODE":"171.1821","ARG_OF_PERICENTER":"90.8919","MEAN_ANOMALY":"269.9815","EPHEMERIS_TYPE":"0","CLASSIFICATION_TYPE":"U","NORAD_CAT_ID":"2249","ELEMENT_SET_NO":"999","REV_AT_EPOCH":"307","BSTAR":"0.00000000000000","MEAN_MOTION_DOT":"0.00368866","MEAN_MOTION_DDOT":"0.0002973300000","SEMIMAJOR_AXIS":"6667.492","PERIOD":"90.303","APOAPSIS":"340.086","PERIAPSIS":"238.628","OBJECT_TYPE":"DEBRIS","RCS_SIZE":null,"COUNTRY_CODE":null,"LAUNCH_DATE":null,"SITE":null,"DECAY_DATE":"1966-07-04","FILE":"33914","GP_ID":"8720127","TLE_LINE0":"0 ATLAS D DEB","TLE_LINE1":"1 02249U 66046 AB 66171.88188084  .00368866 +29733-3 +00000-0 0  9999","TLE_LINE2":"2 02249 028.4054 171.1821 0076084 090.8919 269.9815 15.94628110003071"},{"CCSDS_OMM_VERS":"2.0","COMMENT":"GENERATED VIA SPACE-TRACK.ORG API","CREATION_DATE":"2004-08-15T23:35:47","ORIGINATOR":"18 SPCS","OBJECT_NAME":"ATLAS D DEB","OBJECT_ID":"1966-046AZ","CENTER_NAME":"EARTH","REF_FRAME":"TEME","TIME_SYSTEM":"UTC","MEAN_ELEMENT_THEORY":"SGP4","EPOCH":"1966-06-20T21:21:55.558367","MEAN_MOTION":"16.11910578","ECCENTRICITY":"0.00570200","INCLINATION":"28.3628","RA_OF_ASC_NODE":"171.1244","ARG_OF_PERICENTER":"40.5793","MEAN_ANOMALY":"319.8744","EPHEMERIS_TYPE":"0","CLASSIFICATION_TYPE":"U","NORAD_CAT_ID":"2282","ELEMENT_SET_NO":"999","REV_AT_EPOCH":"307","BSTAR":"0.00000000000000","MEAN_MOTION_DOT":"0.00000000","MEAN_MOTION_DDOT":"0.0000000000000","SEMIMAJOR_AXIS":"6619.748","PERIOD":"89.334","APOAPSIS":"279.359","PERIAPSIS":"203.867","OBJECT_TYPE":"DEBRIS","RCS_SIZE":null,"COUNTRY_CODE":null,"LAUNCH_DATE":null,"SITE":null,"DECAY_DATE":"1966-07-04","FILE":"33914","GP_ID":"8720241","TLE_LINE0":"0 ATLAS D DEB","TLE_LINE1":"1 02282U 66046 AZ 66171.89022637  .00000000 +00000-0 +00000-0 0  9994","TLE_LINE2":"2 02282 028.3628 171.1244 0057020 040.5793 319.8744 16.11910578003072"},{"CCSDS_OMM_VERS":"2.0","COMMENT":"GENERATED VIA SPACE-TRACK.ORG API","CREATION_DATE":"2004-08-15T23:35:47","ORIGINATOR":"18 SPCS","OBJECT_NAME":"ATLAS D DEB","OBJECT_ID":"1966-046AY","CENTER_NAME":"EARTH","REF_FRAME":"TEME","TIME_SYSTEM":"UTC","MEAN_ELEMENT_THEORY":"SGP4","EPOCH":"1966-06-20T21:23:42.075743","MEAN_MOTION":"15.94423392","ECCENTRICITY":"0.01211830","INCLINATION":"28.5338","RA_OF_ASC_NODE":"171.5645","ARG_OF_PERICENTER":"88.3582","MEAN_ANOMALY":"273.0304","EPHEMERIS_TYPE":"0","CLASSIFICATION_TYPE":"U","NORAD_CAT_ID":"2281","ELEMENT_SET_NO":"999","REV_AT_EPOCH":"307","BSTAR":"0.00000000000000","MEAN_MOTION_DOT":"0.01107051","MEAN_MOTION_DDOT":"0.0026718000000","SEMIMAJOR_AXIS":"6668.062","PERIOD":"90.314","APOAPSIS":"370.733","PERIAPSIS":"209.122","OBJECT_TYPE":"DEBRIS","RCS_SIZE":null,"COUNTRY_CODE":null,"LAUNCH_DATE":null,"SITE":null,"DECAY_DATE":"1966-07-04","FILE":"33914","GP_ID":"8720240","TLE_LINE0":"0 ATLAS D DEB","TLE_LINE1":"1 02281U 66046 AY 66171.89145921  .01107051 +26718-2 +00000-0 0  9996","TLE_LINE2":"2 02281 028.5338 171.5645 0121183 088.3582 273.0304 15.94423392003074"},{"CCSDS_OMM_VERS":"2.0","COMMENT":"GENERATED VIA SPACE-TRACK.ORG API","CREATION_DATE":"2004-08-15T23:35:47","ORIGINATOR":"18 SPCS","OBJECT_NAME":"ATLAS D DEB","OBJECT_ID":"1966-046AX","CENTER_NAME":"EARTH","REF_FRAME":"TEME","TIME_SYSTEM":"UTC","MEAN_ELEMENT_THEORY":"SGP4","EPOCH":"1966-06-20T21:29:23.176031","MEAN_MOTION":"15.90523404","ECCENTRICITY":"0.01149990","INCLINATION":"28.1904","RA_OF_ASC_NODE":"171.1910","ARG_OF_PERICENTER":"64.8443","MEAN_ANOMALY":"296.3539","EPHEMERIS_TYPE":"0","CLASSIFICATION_TYPE":"U","NORAD_CAT_ID":"2280","ELEMENT_SET_NO":"999","REV_AT_EPOCH":"307","BSTAR":"0.00000000000000","MEAN_MOTION_DOT":"0.00094616","MEAN_MOTION_DDOT":"0.0000186770000","SEMIMAJOR_AXIS":"6678.958","PERIOD":"90.536","APOAPSIS":"377.630","PERIAPSIS":"224.016","OBJECT_TYPE":"DEBRIS","RCS_SIZE":null,"COUNTRY_CODE":null,"LAUNCH_DATE":null,"SITE":null,"DECAY_DATE":"1966-07-04","FILE":"33914","GP_ID":"8720239","TLE_LINE0":"0 ATLAS D DEB","TLE_LINE1":"1 02280U 66046 AX 66171.89540713  .00094616 +18677-4 +00000-0 0  9991","TLE_LINE2":"2 02280 028.1904 171.1910 0114999 064.8443 296.3539 15.90523404003070"},{"CCSDS_OMM_VERS":"2.0","COMMENT":"GENERATED VIA SPACE-TRACK.ORG API","CREATION_DATE":"2004-08-15T23:35:47","ORIGINATOR":"18 SPCS","OBJECT_NAME":"ATLAS D DEB","OBJECT_ID":"1966-046AP","CENTER_NAME":"EARTH","REF_FRAME":"TEME","TIME_SYSTEM":"UTC","MEAN_ELEMENT_THEORY":"SGP4","EPOCH":"1966-06-20T21:43:15.010176","MEAN_MOTION":"15.54318456","ECCENTRICITY":"0.02985200","INCLINATION":"28.3633","RA_OF_ASC_NODE":"170.3049","ARG_OF_PERICENTER":"72.1263","MEAN_ANOMALY":"291.1117","EPHEMERIS_TYPE":"0","CLASSIFICATION_TYPE":"U","NORAD_CAT_ID":"2272","ELEMENT_SET_NO":"999","REV_AT_EPOCH":"300","BSTAR":"0.00000000000000","MEAN_MOTION_DOT":"0.00287543","MEAN_MOTION_DDOT":"0.0001264900000","SEMIMAJOR_AXIS":"6782.275","PERIOD":"92.645","APOAPSIS":"606.605","PERIAPSIS":"201.676","OBJECT_TYPE":"DEBRIS","RCS_SIZE":null,"COUNTRY_CODE":null,"LAUNCH_DATE":null,"SITE":null,"DECAY_DATE":"1966-07-04","FILE":"33914","GP_ID":"8720231","TLE_LINE0":"0 ATLAS D DEB","TLE_LINE1":"1 02272U 66046 AP 66171.90503484  .00287543 +12649-3 +00000-0 0  9993","TLE_LINE2":"2 02272 028.3633 170.3049 0298520 072.1263 291.1117 15.54318456003008"}]